NORAD_CAT_ID,OBJECT_NAME,OBJECT_TYPE,EPOCH,MEAN_MOTION,ECCENTRICITY,INCLINATION,RA_OF_ASC_NODE,ARG_OF_PERICENTER,MEAN_ANOMALY,BSTAR,MEAN_MOTION_DOT,MEAN_MOTION_DDOT,TLE_LINE0,TLE_LINE1,TLE_LINE2,SEMIMAJOR_AXIS,PERIOD,APOGEE,PERIGEE,DECAYED
50851.0,STARLINK-3314,PAYLOAD,2023-12-05 05:29:51,15.08848852,0.0001921,53.2177,284.6864,101.3734,258.7474,0.00034545,5.215e-05,0.0,0 STARLINK-3314,1 50851U 22001BA  23339.22906727  .00005215  00000-0  34545-3 0  9996,2 50851  53.2177 284.6864 0001921 101.3734 258.7474 15.08848852105659,6917.853,95.437,541.047,538.389,0.0
50851.0,STARLINK-3314,PAYLOAD,2023-12-05 21:23:42,15.0884638,0.000214,53.216,281.7018,129.1576,230.9606,0.00010833,1.437e-05,0.0,0 STARLINK-3314,1 50851U 22001BA  23339.89146422  .00001437  00000-0  10833-3 0  9993,2 50851  53.2160 281.7018 0002140 129.1576 230.9606 15.08846380105750,6917.861,95.437,541.206,538.245,0.0
50851.0,STARLINK-3314,PAYLOAD,2023-12-06 03:45:15,15.08848476,0.0001785,53.2168,280.5194,86.5792,273.5404,0.00040952,6.237e-05,0.0,0 STARLINK-3314,1 50851U 22001BA  23340.15642671  .00006237  00000-0  40952-3 0  9999,2 50851  53.2168 280.5194 0001785  86.5792 273.5404 15.08848476107074,6917.854,95.437,540.954,538.485,0.0
50851.0,STARLINK-3314,PAYLOAD,2023-12-06 05:20:38,15.0885216,0.0001782,53.2168,280.2191,93.4765,266.6431,0.0005371,8.273e-05,0.0,0 STARLINK-3314,1 50851U 22001BA  23340.22266473  .00008273  00000-0  53710-3 0  9997,2 50851  53.2168 280.2191 0001782  93.4765 266.6431 15.08852160105809,6917.843,95.437,540.941,538.475,0.0
50851.0,STARLINK-3314,PAYLOAD,2023-12-07 05:11:26,15.08832188,0.0001642,53.216,275.7592,113.9266,246.1899,-2.2225e-06,-3.23e-06,0.0,0 STARLINK-3314,1 50851U 22001BA  23341.21627394 -.00000323  00000-0 -22225-5 0  9999,2 50851  53.2160 275.7592 0001642 113.9266 246.1899 15.08832188107232,6917.904,95.438,540.905,538.633,0.0
50851.0,STARLINK-3314,PAYLOAD,2023-12-08 01:51:27,15.08841116,0.0001657,53.217,271.8973,85.301,274.8171,0.00011282,1.508e-05,0.0,0 STARLINK-3314,1 50851U 22001BA  23342.07739692  .00001508  00000-0  11282-3 0  9992,2 50851  53.2170 271.8973 0001657  85.3010 274.8171 15.08841116106082,6917.877,95.437,540.888,538.596,0.0
50851.0,STARLINK-3314,PAYLOAD,2023-12-08 19:20:41,15.08848035,0.0001487,53.2166,268.6255,91.6004,268.5158,0.00031324,4.702e-05,0.0,0 STARLINK-3314,1 50851U 22001BA  23342.80603386  .00004702  00000-0  31324-3 0  9991,2 50851  53.2166 268.6255 0001487  91.6004 268.5158 15.08848035107474,6917.856,95.437,540.75,538.692,0.0
50851.0,STARLINK-3314,PAYLOAD,2023-12-09 01:42:13,15.088539,0.0001586,53.217,267.4369,84.7881,275.3293,0.0003642,5.515e-05,0.0,0 STARLINK-3314,1 50851U 22001BA  23343.07099067  .00005515  00000-0  36420-3 0  9991,2 50851  53.2170 267.4369 0001586  84.7881 275.3293 15.08853900106234,6917.838,95.437,540.8,538.606,0.0
50851.0,STARLINK-3314,PAYLOAD,2023-12-09 19:11:28,15.08847354,0.0001659,53.2173,264.1639,95.4409,264.6773,8.4415e-05,1.056e-05,0.0,0 STARLINK-3314,1 50851U 22001BA  23343.79963075  .00001056  00000-0  84415-4 0  9993,2 50851  53.2173 264.1639 0001659  95.4409 264.6773 15.08847354107621,6917.858,95.437,540.871,538.575,0.0
50851.0,STARLINK-3314,PAYLOAD,2023-12-10 22:13:01,15.088428,0.0001581,53.2169,259.1116,90.9971,269.1202,3.5093e-05,2.71e-06,0.0,0 STARLINK-3314,1 50851U 22001BA  23344.92571114  .00000271  00000-0  35093-4 0  9994,2 50851  53.2169 259.1116 0001581  90.9971 269.1202 15.08842800106513,6917.872,95.437,540.831,538.643,0.0
50851.0,STARLINK-3314,PAYLOAD,2023-12-11 01:23:47,15.08853489,0.0001648,53.2176,258.5146,102.1852,257.9325,-0.00021851,-3.765e-05,0.0,0 STARLINK-3314,1 50851U 22001BA  23345.05818359 -.00003765  00000-0 -21851-3 0  9993,2 50851  53.2176 258.5146 0001648 102.1852 257.9325 15.08853489107815,6917.839,95.437,540.844,538.564,0.0
50851.0,STARLINK-3314,PAYLOAD,2023-12-11 22:03:48,15.08836211,0.0001686,53.2176,254.6499,106.4635,253.6542,3.8158e-05,3.19e-06,0.0,0 STARLINK-3314,1 50851U 22001BA  23345.91931334  .00000319  00000-0  38158-4 0  9996,2 50851  53.2176 254.6499 0001686 106.4635 253.6542 15.08836211106661,6917.892,95.438,540.923,538.591,0.0
50851.0,STARLINK-3314,PAYLOAD,2023-12-12 01:14:35,15.0883539,0.0001583,53.2178,254.0545,103.2009,256.916,7.4236e-05,8.94e-06,0.0,0 STARLINK-3314,1 50851U 22001BA  23346.05179662  .00000894  00000-0  74236-4 0  9995,2 50851  53.2178 254.0545 0001583 103.2009 256.9160 15.08835390107968,6917.894,95.438,540.855,538.664,0.0
50851.0,STARLINK-3314,PAYLOAD,2023-12-12 21:54:35,15.08842649,0.0001451,53.2169,250.1874,98.9463,261.1693,0.0001075,1.423e-05,0.0,0 STARLINK-3314,1 50851U 22001BA  23346.91291378  .00001423  00000-0  10750-3 0  9998,2 50851  53.2169 250.1874 0001451  98.9463 261.1693 15.08842649106815,6917.872,95.437,540.741,538.734,0.0
50851.0,STARLINK-3314,PAYLOAD,2023-12-13 01:05:21,15.0884599,0.0001451,53.217,249.5926,93.5464,266.5694,0.00013295,1.829e-05,0.0,0 STARLINK-3314,1 50851U 22001BA  23347.04539133  .00001829  00000-0  13295-3 0  9994,2 50851  53.2170 249.5926 0001451  93.5464 266.5694 15.08845990108116,6917.862,95.437,540.731,538.723,0.0
50851.0,STARLINK-3314,PAYLOAD,2023-12-13 21:45:22,15.08839978,0.0001372,53.2164,245.7292,88.5406,271.5744,0.00010355,1.36e-05,0.0,0 STARLINK-3314,1 50851U 22001BA  23347.90651617  .00001360  00000-0  10355-3 0  9995,2 50851  53.2164 245.7292 0001372  88.5406 271.5744 15.08839978106967,6917.88,95.438,540.695,538.796,0.0
50851.0,STARLINK-3314,PAYLOAD,2023-12-14 00:56:09,15.08842208,0.0001401,53.2165,245.1343,87.0024,273.1128,0.0001203,1.627e-05,0.0,0 STARLINK-3314,1 50851U 22001BA  23348.03899455  .00001627  00000-0  12030-3 0  9992,2 50851  53.2165 245.1343 0001401  87.0024 273.1128 15.08842208108261,6917.874,95.437,540.708,538.769,0.0
50851.0,STARLINK-3314,PAYLOAD,2023-12-14 21:36:09,15.08845982,0.0001521,53.2169,241.2684,77.0653,283.0509,7.8671e-05,9.64e-06,0.0,0 STARLINK-3314,1 50851U 22001BA  23348.90011315  .00000964  00000-0  78671-4 0  9996,2 50851  53.2169 241.2684 0001521  77.0653 283.0509 15.08845982107118,6917.862,95.437,540.779,538.675,0.0
50851.0,STARLINK-3314,PAYLOAD,2023-12-15 00:46:55,15.08848008,0.0001754,53.2176,240.6727,68.0387,292.0792,0.00025762,3.815e-05,0.0,0 STARLINK-3314,1 50851U 22001BA  23349.03259082  .00003815  00000-0  25762-3 0  9996,2 50851  53.2176 240.6727 0001754  68.0387 292.0792 15.08848008107137,6917.856,95.437,540.934,538.508,0.0
50851.0,STARLINK-3314,PAYLOAD,2023-12-15 21:26:57,15.08831111,0.0001425,53.216,236.8123,69.4271,290.6874,-2.4918e-05,-6.84e-06,0.0,0 STARLINK-3314,1 50851U 22001BA  23349.89372335 -.00000684  00000-0 -24918-4 0  9993,2 50851  53.2160 236.8123 0001425  69.4271 290.6874 15.08831111107265,6917.908,95.438,540.758,538.787,0.0
50851.0,STARLINK-3314,PAYLOAD,2023-12-15 23:02:20,15.08831706,0.0001388,53.2158,236.5174,90.56,269.5552,-1.8457e-05,-5.82e-06,0.0,0 STARLINK-3314,1 50851U 22001BA  23349.95996285 -.00000582  00000-0 -18457-4 0  9994,2 50851  53.2158 236.5174 0001388  90.5600 269.5552 15.08831706108555,6917.906,95.438,540.731,538.811,0.0
50851.0,STARLINK-3314,PAYLOAD,2023-12-16 19:42:21,15.08847255,0.0001269,53.2166,232.6462,92.621,267.4927,4.3173e-05,3.99e-06,0.0,0 STARLINK-3314,1 50851U 22001BA  23350.82107762  .00000399  00000-0  43173-4 0  9993,2 50851  53.2166 232.6462 0001269  92.6210 267.4927 15.08847255108682,6917.858,95.437,540.601,538.845,0.0
50851.0,STARLINK-3314,PAYLOAD,2023-12-16 21:17:44,15.08849064,0.0001433,53.2173,232.3537,97.0719,263.0436,7.8967e-05,9.69e-06,0.0,0 STARLINK-3314,1 50851U 22001BA  23350.88731687  .00000969  00000-0  78967-4 0  9990,2 50851  53.2173 232.3537 0001433  97.0719 263.0436 15.08849064107413,6917.853,95.437,540.709,538.726,0.0
50851.0,STARLINK-3314,PAYLOAD,2023-12-16 22:53:07,15.0884873,0.0001446,53.2171,232.0522,94.9413,265.1744,0.00024303,3.583e-05,0.0,0 STARLINK-3314,1 50851U 22001BA  23350.95355783  .00003583  00000-0  24303-3 0  9996,2 50851  53.2171 232.0522 0001446  94.9413 265.1744 15.08848730107428,6917.854,95.437,540.719,538.718,0.0
50851.0,STARLINK-3314,PAYLOAD,2023-12-17 21:08:31,15.08850137,0.000141,53.216,227.8831,93.1877,266.9277,0.0003089,4.633e-05,0.0,0 STARLINK-3314,1 50851U 22001BA  23351.88091662  .00004633  00000-0  30890-3 0  9997,2 50851  53.2160 227.8831 0001410  93.1877 266.9277 15.08850137107566,6917.849,95.437,540.69,538.739,0.0
50851.0,STARLINK-3314,PAYLOAD,2023-12-17 22:43:54,15.08850859,0.000142,53.216,227.5854,86.1109,274.0046,0.00030453,4.563e-05,0.0,0 STARLINK-3314,1 50851U 22001BA  23351.94715617  .00004563  00000-0  30453-3 0  9994,2 50851  53.2160 227.5854 0001420  86.1109 274.0046 15.08850859108857,6917.847,95.437,540.695,538.73,0.0
50851.0,STARLINK-3314,PAYLOAD,2023-12-18 19:23:55,15.08840213,0.0001467,53.2159,223.7199,96.5388,263.5771,-4.9439e-05,-1.075e-05,0.0,0 STARLINK-3314,1 50851U 22001BA  23352.80827817 -.00001075  00000-0 -49439-4 0  9998,2 50851  53.2159 223.7199 0001467  96.5388 263.5771 15.08840213108985,6917.88,95.438,540.76,538.73,0.0
50851.0,STARLINK-3314,PAYLOAD,2023-12-18 22:34:41,15.08838842,0.0001448,53.2158,223.1249,90.9521,269.1637,-5.1922e-05,-1.114e-05,0.0,0 STARLINK-3314,1 50851U 22001BA  23352.94075908 -.00001114  00000-0 -51922-4 0  9993,2 50851  53.2158 223.1249 0001448  90.9521 269.1637 15.08838842107729,6917.884,95.438,540.751,538.747,0.0
50851.0,STARLINK-3314,PAYLOAD,2023-12-19 19:14:42,15.08830808,0.0001656,53.2156,219.2605,104.8625,255.2551,0.000337,5.078e-05,0.0,0 STARLINK-3314,1 50851U 22001BA  23353.80188643  .00005078  00000-0  33700-3 0  9994,2 50851  53.2156 219.2605 0001656 104.8625 255.2551 15.08830808109132,6917.908,95.438,540.919,538.628,0.0
50851.0,STARLINK-3314,PAYLOAD,2023-12-19 20:50:05,15.08838697,0.0001427,53.2151,218.9643,90.6199,269.4957,1.5719e-05,-3.8e-07,0.0,0 STARLINK-3314,1 50851U 22001BA  23353.86812219 -.00000038  00000-0  15719-4 0  9996,2 50851  53.2151 218.9643 0001427  90.6199 269.4957 15.08838697107868,6917.884,95.438,540.737,538.762,0.0
